[{"id":1,"Name":"Mariejeanne Ianinotti","PLZ":7318,"WochenstundenMax":9},
{"id":2,"Name":"Nicko Petrillo","PLZ":4165,"WochenstundenMax":22},
{"id":3,"Name":"Almeria Rickards","PLZ":7555,"WochenstundenMax":22},
{"id":4,"Name":"Zacharie Rapsey","PLZ":6065,"WochenstundenMax":25},
{"id":5,"Name":"Mattie Matuszyk","PLZ":5588,"WochenstundenMax":9},
{"id":6,"Name":"Domini Sigmund","PLZ":5177,"WochenstundenMax":13},
{"id":7,"Name":"Karolina Darridon","PLZ":6810,"WochenstundenMax":18},
{"id":8,"Name":"Thedric Kloss","PLZ":6047,"WochenstundenMax":11},
{"id":9,"Name":"Lindi Cooley","PLZ":6980,"WochenstundenMax":24},
{"id":10,"Name":"Chrisy Antonioni","PLZ":7829,"WochenstundenMax":17},
{"id":11,"Name":"Moira Spearman","PLZ":7490,"WochenstundenMax":8},
{"id":12,"Name":"Thebault Whyman","PLZ":7059,"WochenstundenMax":10},
{"id":13,"Name":"Gav Sawfoot","PLZ":7862,"WochenstundenMax":25},
{"id":14,"Name":"Kikelia Smerdon","PLZ":5487,"WochenstundenMax":22},
{"id":15,"Name":"Faith Knightsbridge","PLZ":6583,"WochenstundenMax":21},
{"id":16,"Name":"Karly Howsam","PLZ":5173,"WochenstundenMax":25},
{"id":17,"Name":"Hill Willoughby","PLZ":4016,"WochenstundenMax":9},
{"id":18,"Name":"Octavia Janjusevic","PLZ":5503,"WochenstundenMax":16},
{"id":19,"Name":"Ester Ternent","PLZ":6602,"WochenstundenMax":22},
{"id":20,"Name":"Floyd Yesipov","PLZ":6994,"WochenstundenMax":23}]