[{"Id":1,"Name":"Janene Lakes","PLZ":4537,"Abteilung":"EDV"},
{"Id":2,"Name":"Trixie Fawthorpe","PLZ":7826,"Abteilung":"Beratung"},
{"Id":3,"Name":"Ana Franklyn","PLZ":7252,"Abteilung":"Einkauf"},
{"Id":4,"Name":"Angele Worshall","PLZ":6998,"Abteilung":"Reinigung"},
{"Id":5,"Name":"Beck Willingam","PLZ":4980,"Abteilung":"EDV"},
{"Id":6,"Name":"Sonya Wynne","PLZ":5912,"Abteilung":"Administration"},
{"Id":7,"Name":"Jesse Kelling","PLZ":7432,"Abteilung":"Einkauf"},
{"Id":8,"Name":"Broderick Tavner","PLZ":5573,"Abteilung":"Beratung"},
{"Id":9,"Name":"Collette Breinl","PLZ":7305,"Abteilung":"Reinigung"},
{"Id":10,"Name":"Jacintha McKelvie","PLZ":7238,"Abteilung":"EDV"},
{"Id":11,"Name":"Greer Steinson","PLZ":4283,"Abteilung":"EDV"},
{"Id":12,"Name":"Theresina McAllan","PLZ":7473,"Abteilung":"Einkauf"},
{"Id":13,"Name":"Forster Halpeine","PLZ":6537,"Abteilung":"Einkauf"},
{"Id":14,"Name":"Roberto Barracks","PLZ":5726,"Abteilung":"Beratung"},
{"Id":15,"Name":"Bonny Hordle","PLZ":5027,"Abteilung":"Beratung"},
{"Id":16,"Name":"Addi Galliard","PLZ":6440,"Abteilung":"Beratung"},
{"Id":17,"Name":"Henka Fennell","PLZ":6239,"Abteilung":"EDV"},
{"Id":18,"Name":"Glenden Stud","PLZ":6153,"Abteilung":"Administration"},
{"Id":19,"Name":"Carroll Napier","PLZ":4647,"Abteilung":"Administration"},
{"Id":20,"Name":"Broddy Monson","PLZ":5793,"Abteilung":"Beratung"}]